{
  "norad_id": 63190,
  "name": "STARLINK-11637 [DTC]",
  "history": [
    {
      "epoch": "2026-03-28T17:53:09.726144",
      "apogee_km": 357.1906641457972,
      "perigee_km": 355.5283210315665,
      "latitude_deg": 39.074852720407826,
      "longitude_deg": -149.45585983991623,
      "semi_major_axis_km": 6734.496492588682,
      "eccentricity": 0.00012342,
      "inclination_deg": 43.0008,
      "raan_deg": 205.4352,
      "arg_perigee_deg": 248.3367,
      "mean_anomaly_deg": 111.7369,
      "mean_motion_rev_day": 15.70887433
    }
  ]
}