{"fetched_at":"2026-03-29T16:36:15Z","count":15609,"tles":[{"name":"STARLINK-11637 [DTC]","line1":"1 63190U 25048H   26087.74525146  .00206517  00000+0  15701-2 0  9991","line2":"2 63190  43.0008 205.4352 0001234 248.3367 111.7369 15.70887433 61517","category":"Starlink"}]}